[{"PR12":"451","MANUF":"HOND","Market":"TN Market 1","PMA":"Mkt 1 - PMA 1","DSC":"Bill Gatton Honda","Address":"2130 Volunteer Pkwy","City":"Bristol","State":"TN","Zip":"37620-6709","Longitude":"-82.233646","Latitude":"36.541931","CR12":"281"},{"PR12":"1096","MANUF":"HYUN","Market":"TN Market 1","PMA":"Mkt 1 - PMA 1","DSC":"Friendship Hyundai","Address":"1841 Volunteer Pkwy","City":"Bristol","State":"TN","Zip":"37620","Longitude":"-82.224326","Latitude":"36.549365","CR12":"899"},{"PR12":"618","MANUF":"KIA","Market":"TN Market 1","PMA":"Mkt 1 - PMA 1","DSC":"Wallace Kia of Bristol","Address":"320 Volunteer Pkwy","City":"Bristol","State":"TN","Zip":"37620-2251","Longitude":"-82.18738","Latitude":"36.590939","CR12":"585"},{"PR12":"1019","MANUF":"NISS","Market":"TN Market 1","PMA":"Mkt 1 - PMA 1","DSC":"Bill Gatton Nissan","Address":"235 Century Blvd","City":"Bristol","State":"TN","Zip":"37620","Longitude":"-82.236668","Latitude":"36.542555","CR12":"602"},{"PR12":"866","MANUF":"SUBA","Market":"TN Market 1","PMA":"Mkt 1 - PMA 1","DSC":"Wallace Subaru of Bristol","Address":"320 Volunteer Pkwy","City":"Bristol","State":"TN","Zip":"37620-2251","Longitude":"-82.18738","Latitude":"36.590939","CR12":"291"},{"PR12":"723","MANUF":"TOY","Market":"TN Market 1","PMA":"Mkt 1 - PMA 1","DSC":"Toyota of Bristol","Address":"3045 W State St","City":"Bristol","State":"TN","Zip":"37620-1720","Longitude":"-82.222519","Latitude":"36.592554","CR12":"325"},{"PR12":"693","MANUF":"HOND","Market":"TN Market 2","PMA":"Mkt 2 - PMA 1","DSC":"Economy Honda Superstore","Address":"2135 Chapman Rd","City":"Chattanooga","State":"TN","Zip":"37421-1647","Longitude":"-85.188744","Latitude":"35.057619","CR12":"951"},{"PR12":"363","MANUF":"HYUN","Market":"TN Market 2","PMA":"Mkt 2 - PMA 1","DSC":"Long Hyundai","Address":"6035 International Dr","City":"Chattanooga","State":"TN","Zip":"37421-1617","Longitude":"-85.191123","Latitude":"35.059403","CR12":"447"},{"PR12":"799","MANUF":"KIA","Market":"TN Market 2","PMA":"Mkt 2 - PMA 1","DSC":"Kia of Chattanooga","Address":"2136 Chapman Rd","City":"Chattanooga","State":"TN","Zip":"37421-1689","Longitude":"-85.18868","Latitude":"35.057996","CR12":"551"},{"PR12":"872","MANUF":"NISS","Market":"TN Market 2","PMA":"Mkt 2 - PMA 1","DSC":"Nissan / Chattanooga East","Address":"2121 Chapman Rd","City":"Chattanooga","State":"TN","Zip":"37421-1647","Longitude":"-85.188726","Latitude":"35.056547","CR12":"1085"},{"PR12":"1044","MANUF":"TOY","Market":"TN Market 2","PMA":"Mkt 2 - PMA 1","DSC":"Capital Toyota","Address":"5808 Lee Hwy","City":"Chattanooga","State":"TN","Zip":"37421-3544","Longitude":"-85.200866","Latitude":"35.020824","CR12":"708"},{"PR12":"454","MANUF":"NISS","Market":"TN Market 2","PMA":"Mkt 2 - PMA 2","DSC":"Mtn. View Nissan Inc.","Address":"2100 Market St","City":"Chattanooga","State":"TN","Zip":"37408-2636","Longitude":"-85.30899","Latitude":"35.030481","CR12":"204"},{"PR12":"884","MANUF":"SUBA","Market":"TN Market 2","PMA":"Mkt 2 - PMA 2","DSC":"Kelly Subaru","Address":"900 Riverfront Pkwy","City":"Chattanooga","State":"TN","Zip":"37402-2101","Longitude":"-85.321792","Latitude":"35.048622","CR12":"629"},{"PR12":"1076","MANUF":"HOND","Market":"TN Market 2","PMA":"Mkt 2 - PMA 3","DSC":"Honda of Cleveland","Address":"2701 S Lee Hwy SW","City":"Cleveland","State":"TN","Zip":"37311-8029","Longitude":"-84.92438","Latitude":"35.14176","CR12":"493"},{"PR12":"1052","MANUF":"HYUN","Market":"TN Market 2","PMA":"Mkt 2 - PMA 3","DSC":"Gray Epperson Hyundai","Address":"4100 Apd 40","City":"Cleveland","State":"TN","Zip":"37311-7112","Longitude":"-84.907505","Latitude":"35.137472","CR12":"605"},{"PR12":"905","MANUF":"KIA","Market":"TN Market 2","PMA":"Mkt 2 - PMA 3","DSC":"Kia of Cleveland","Address":"2492 S Lee Hwy","City":"Cleveland","State":"TN","Zip":"37311-7340","Longitude":"-84.924309","Latitude":"35.144893","CR12":"687"},{"PR12":"809","MANUF":"NISS","Market":"TN Market 2","PMA":"Mkt 2 - PMA 3","DSC":"Nissan of Cleveland","Address":"131 Pleasant Grove Rd","City":"Mc Donald","State":"TN","Zip":"37353-6045","Longitude":"-84.950209","Latitude":"35.152745","CR12":"635"},{"PR12":"302","MANUF":"TOY","Market":"TN Market 2","PMA":"Mkt 2 - PMA 3","DSC":"Toyota of Cleveland","Address":"3560 Village North Blvd","City":"Mc Donald","State":"TN","Zip":"37353-6058","Longitude":"-84.946423","Latitude":"35.154722","CR12":"313"},{"PR12":"949","MANUF":"HOND","Market":"TN Market 3","PMA":"Mkt 3 - PMA 1","DSC":"Jenkins and Wynne Honda","Address":"2655 Trenton Rd","City":"Clarksville","State":"TN","Zip":"37040-5802","Longitude":"-87.312704","Latitude":"36.580426","CR12":"1007"},{"PR12":"1084","MANUF":"HYUN","Market":"TN Market 3","PMA":"Mkt 3 - PMA 1","DSC":"Wyatt-Johnson Hyundai","Address":"2425 Wilma Rudolph Blvd","City":"Clarksville","State":"TN","Zip":"37040-5843","Longitude":"-87.302751","Latitude":"36.573924","CR12":"509"},{"PR12":"481","MANUF":"KIA","Market":"TN Market 3","PMA":"Mkt 3 - PMA 1","DSC":"Wyatt Johnson Kia","Address":"2285 Trenton Rd","City":"Clarksville","State":"TN","Zip":"37040-6633","Longitude":"-87.314436","Latitude":"36.576384","CR12":"626"},{"PR12":"442","MANUF":"NISS","Market":"TN Market 3","PMA":"Mkt 3 - PMA 1","DSC":"Harold Mathews Nissan","Address":"185 Highway 76","City":"Clarksville","State":"TN","Zip":"37043-4104","Longitude":"-87.269476","Latitude":"36.513854","CR12":"482"},{"PR12":"1073","MANUF":"SUBA","Market":"TN Market 3","PMA":"Mkt 3 - PMA 1","DSC":"Wyatt Johnson Subaru","Address":"2425 Wilma Rudolph Blvd","City":"Clarksville","State":"TN","Zip":"37040-5843","Longitude":"-87.302751","Latitude":"36.573924","CR12":"403"},{"PR12":"393","MANUF":"TOY","Market":"TN Market 3","PMA":"Mkt 3 - PMA 1","DSC":"Wyatt-Johnson Toyota","Address":"2595 Wilma Rudolph Blvd","City":"Clarksville","State":"TN","Zip":"37040-5844","Longitude":"-87.299779","Latitude":"36.578895","CR12":"908"},{"PR12":"717","MANUF":"HYUN","Market":"TN Market 4","PMA":"Mkt 4 - PMA 1","DSC":"Hyundai of Columbia","Address":"1370 Nashville Hwy","City":"Columbia","State":"TN","Zip":"38401-2002","Longitude":"-87.01326","Latitude":"35.644481","CR12":"727"},{"PR12":"1005","MANUF":"NISS","Market":"TN Market 4","PMA":"Mkt 4 - PMA 1","DSC":"Benton Nissan of Columbia","Address":"1510 Nashville Hwy","City":"Columbia","State":"TN","Zip":"38401-2068","Longitude":"-87.011762","Latitude":"35.649112","CR12":"631"},{"PR12":"663","MANUF":"TOY","Market":"TN Market 4","PMA":"Mkt 4 - PMA 1","DSC":"Roberts Toyota","Address":"1027 Nashville Hwy","City":"Columbia","State":"TN","Zip":"38401-2103","Longitude":"-87.019094","Latitude":"35.634226","CR12":"562"},{"PR12":"585","MANUF":"HOND","Market":"TN Market 5","PMA":"Mkt 5 - PMA 1","DSC":"Cookeville Honda","Address":"560 Neal St","City":"Cookeville","State":"TN","Zip":"38501-4027","Longitude":"-85.491919","Latitude":"36.1397","CR12":"913"},{"PR12":"953","MANUF":"HYUN","Market":"TN Market 5","PMA":"Mkt 5 - PMA 1","DSC":"Hyundai of Cookeville","Address":"931 S Willow Ave","City":"Cookeville","State":"TN","Zip":"38501-4105","Longitude":"-85.525204","Latitude":"36.142825","CR12":"1098"},{"PR12":"779","MANUF":"KIA","Market":"TN Market 5","PMA":"Mkt 5 - PMA 1","DSC":"Cumberland Kia","Address":"1560 Interstate Dr","City":"Cookeville","State":"TN","Zip":"38501-4125","Longitude":"-85.524441","Latitude":"36.139019","CR12":"432"},{"PR12":"503","MANUF":"NISS","Market":"TN Market 5","PMA":"Mkt 5 - PMA 1","DSC":"Nissan of Cookeville","Address":"501 Neal St","City":"Cookeville","State":"TN","Zip":"38501-4026","Longitude":"-85.496383","Latitude":"36.137859","CR12":"232"},{"PR12":"783","MANUF":"TOY","Market":"TN Market 5","PMA":"Mkt 5 - PMA 1","DSC":"Cumberland Toyota","Address":"1540 Interstate Dr","City":"Cookeville","State":"TN","Zip":"38501-4125","Longitude":"-85.521914","Latitude":"36.138377","CR12":"928"},{"PR12":"255","MANUF":"NISS","Market":"TN Market 6","PMA":"Mkt 6 - PMA 1","DSC":"Victory Nissan West","Address":"2219 Highway 46 S","City":"Dickson","State":"TN","Zip":"37055-9503","Longitude":"-87.34064","Latitude":"36.023771","CR12":"432"},{"PR12":"834","MANUF":"NISS","Market":"TN Market 7","PMA":"Mkt 7 - PMA 1","DSC":"Rick Hill Nissan, Inc","Address":"2700 Parr Ave","City":"Dyersburg","State":"TN","Zip":"38024-2020","Longitude":"-89.379785","Latitude":"36.063432","CR12":"1085"},{"PR12":"964","MANUF":"TOY","Market":"TN Market 7","PMA":"Mkt 7 - PMA 1","DSC":"Tim Castellaw Toyota of Dyersburg","Address":"920 US Highway 51 Byp W","City":"Dyersburg","State":"TN","Zip":"38024-1838","Longitude":"-89.397952","Latitude":"36.057692","CR12":"621"},{"PR12":"276","MANUF":"NISS","Market":"TN Market 8","PMA":"Mkt 8 - PMA 1","DSC":"Greeneville Nissan","Address":"300 Bachman Dr","City":"Greeneville","State":"TN","Zip":"37745-4255","Longitude":"-82.788745","Latitude":"36.176845","CR12":"404"},{"PR12":"600","MANUF":"TOY","Market":"TN Market 9","PMA":"Mkt 9 - PMA 1","DSC":"Landers McLarty Toyota","Address":"2970 Huntsville Hwy","City":"Fayetteville","State":"TN","Zip":"37334-6687","Longitude":"-86.574007","Latitude":"35.046765","CR12":"699"},{"PR12":"953","MANUF":"HOND","Market":"TN Market 10","PMA":"Mkt 10 - PMA 1","DSC":"Victory Honda of Jackson","Address":"1408 Highway 45 Byp","City":"Jackson","State":"TN","Zip":"38305-2710","Longitude":"-88.849725","Latitude":"35.64223","CR12":"1081"},{"PR12":"952","MANUF":"HYUN","Market":"TN Market 10","PMA":"Mkt 10 - PMA 1","DSC":"Alan Vines Hyundai","Address":"1639 Highway 45 Byp","City":"Jackson","State":"TN","Zip":"38305-4413","Longitude":"-88.852598","Latitude":"35.649822","CR12":"1061"},{"PR12":"296","MANUF":"KIA","Market":"TN Market 10","PMA":"Mkt 10 - PMA 1","DSC":"Serra Kia of Jackson","Address":"175 Stonebridge Blvd","City":"Jackson","State":"TN","Zip":"38305-2040","Longitude":"-88.852736","Latitude":"35.679028","CR12":"757"},{"PR12":"290","MANUF":"NISS","Market":"TN Market 10","PMA":"Mkt 10 - PMA 1","DSC":"Carlock Nissan of Jackson","Address":"495 Vann Dr","City":"Jackson","State":"TN","Zip":"38305-6018","Longitude":"-88.843149","Latitude":"35.667824","CR12":"279"},{"PR12":"220","MANUF":"TOY","Market":"TN Market 10","PMA":"Mkt 10 - PMA 1","DSC":"Robinson Toyota","Address":"1453 Vann Dr","City":"Jackson","State":"TN","Zip":"38305-6114","Longitude":"-88.86598","Latitude":"35.66095","CR12":"950"},{"PR12":"517","MANUF":"HOND","Market":"TN Market 11","PMA":"Mkt 11 - PMA 1","DSC":"Johnson City Honda","Address":"2806 N Roan St","City":"Johnson City","State":"TN","Zip":"37601-1506","Longitude":"-82.383529","Latitude":"36.356558","CR12":"557"},{"PR12":"621","MANUF":"HYUN","Market":"TN Market 11","PMA":"Mkt 11 - PMA 1","DSC":"Friendship Hyundai of Johnson City","Address":"3408 N Roan St","City":"Johnson City","State":"TN","Zip":"37601-1218","Longitude":"-82.392487","Latitude":"36.363434","CR12":"412"},{"PR12":"881","MANUF":"KIA","Market":"TN Market 11","PMA":"Mkt 11 - PMA 1","DSC":"Grindstaff Kia","Address":"3608 Bristol Hwy","City":"Johnson City","State":"TN","Zip":"37601-1324","Longitude":"-82.370658","Latitude":"36.376534","CR12":"928"},{"PR12":"476","MANUF":"NISS","Market":"TN Market 11","PMA":"Mkt 11 - PMA 1","DSC":"Tri-Cities Nissan, Inc.","Address":"3602 Bristol Hwy","City":"Johnson City","State":"TN","Zip":"37601-1324","Longitude":"-82.372158","Latitude":"36.374853","CR12":"976"},{"PR12":"846","MANUF":"SUBA","Market":"TN Market 11","PMA":"Mkt 11 - PMA 1","DSC":"Wallace Subaru - Johnson City","Address":"3101 E Oakland Ave","City":"Johnson City","State":"TN","Zip":"37601-1528","Longitude":"-82.385497","Latitude":"36.359918","CR12":"558"},{"PR12":"1023","MANUF":"TOY","Market":"TN Market 11","PMA":"Mkt 11 - PMA 1","DSC":"Johnson City Toyota","Address":"3124 Bristol Hwy","City":"Johnson City","State":"TN","Zip":"37601-1555","Longitude":"-82.381028","Latitude":"36.364928","CR12":"494"},{"PR12":"857","MANUF":"HOND","Market":"TN Market 12","PMA":"Mkt 12 - PMA 1","DSC":"Honda Kingsport","Address":"2217 E Stone Dr","City":"Kingsport","State":"TN","Zip":"37660-4734","Longitude":"-82.505838","Latitude":"36.545155","CR12":"426"},{"PR12":"686","MANUF":"KIA","Market":"TN Market 12","PMA":"Mkt 12 - PMA 1","DSC":"Chantz Scott Kia","Address":"929 E Stone Dr","City":"Kingsport","State":"TN","Zip":"37660-3358","Longitude":"-82.536818","Latitude":"36.555705","CR12":"1004"},{"PR12":"655","MANUF":"NISS","Market":"TN Market 12","PMA":"Mkt 12 - PMA 1","DSC":"Wallace Nissan Oldsmobile","Address":"2733 E Stone Dr","City":"Kingsport","State":"TN","Zip":"37660-5860","Longitude":"-82.488281","Latitude":"36.551714","CR12":"860"},{"PR12":"777","MANUF":"SUBA","Market":"TN Market 12","PMA":"Mkt 12 - PMA 1","DSC":"Courtesy Subaru","Address":"1220 E Stone Dr","City":"Kingsport","State":"TN","Zip":"37660-4127","Longitude":"-82.526624","Latitude":"36.550783","CR12":"815"},{"PR12":"1075","MANUF":"TOY","Market":"TN Market 12","PMA":"Mkt 12 - PMA 1","DSC":"Toyota of Kingsport","Address":"2525 E Stone Dr","City":"Kingsport","State":"TN","Zip":"37660-5858","Longitude":"-82.500793","Latitude":"36.546655","CR12":"232"},{"PR12":"895","MANUF":"HOND","Market":"TN Market 13","PMA":"Mkt 13 - PMA 1","DSC":"Airport Honda","Address":"3069 Alcoa Hwy","City":"Alcoa","State":"TN","Zip":"37701-3120","Longitude":"-83.97667","Latitude":"35.82643","CR12":"902"},{"PR12":"504","MANUF":"HYUN","Market":"TN Market 13","PMA":"Mkt 13 - PMA 1","DSC":"Twin City Hyundai","Address":"3024 Alcoa Hwy","City":"Alcoa","State":"TN","Zip":"37701-3121","Longitude":"-83.976554","Latitude":"35.824968","CR12":"319"},{"PR12":"362","MANUF":"KIA","Market":"TN Market 13","PMA":"Mkt 13 - PMA 1","DSC":"Rusty Wallace Kia","Address":"4612 Airport Hwy","City":"Louisville","State":"TN","Zip":"37777-5401","Longitude":"-83.95912","Latitude":"35.86096","CR12":"427"},{"PR12":"227","MANUF":"NISS","Market":"TN Market 13","PMA":"Mkt 13 - PMA 1","DSC":"Twin City Nissan","Address":"3247 Alcoa Hwy","City":"Alcoa","State":"TN","Zip":"37701-3201","Longitude":"-83.97485","Latitude":"35.83044","CR12":"620"},{"PR12":"1056","MANUF":"TOY","Market":"TN Market 13","PMA":"Mkt 13 - PMA 1","DSC":"Rick McGill's Airport Toyota","Address":"3145 Alcoa Hwy","City":"Alcoa","State":"TN","Zip":"37701-3211","Longitude":"-83.97589","Latitude":"35.82815","CR12":"365"},{"PR12":"1009","MANUF":"HOND","Market":"TN Market 13","PMA":"Mkt 13 - PMA 2","DSC":"Rusty Wallace Honda","Address":"109 Callahan Dr","City":"Knoxville","State":"TN","Zip":"37912-1338","Longitude":"-83.99415","Latitude":"36.02636","CR12":"220"},{"PR12":"487","MANUF":"KIA","Market":"TN Market 13","PMA":"Mkt 13 - PMA 2","DSC":"Rusty Wallace Kia of Knoxville","Address":"701 Callahan Dr","City":"Knoxville","State":"TN","Zip":"37912-1302","Longitude":"-84.002899","Latitude":"36.021946","CR12":"978"},{"PR12":"337","MANUF":"NISS","Market":"TN Market 13","PMA":"Mkt 13 - PMA 2","DSC":"Fenton Nissan / Knoxville","Address":"4515 Clinton Hwy","City":"Knoxville","State":"TN","Zip":"37912-3931","Longitude":"-83.96944","Latitude":"35.99976","CR12":"1062"},{"PR12":"733","MANUF":"TOY","Market":"TN Market 13","PMA":"Mkt 13 - PMA 2","DSC":"Fox Toyota","Address":"228 Fox Family Ln","City":"Clinton","State":"TN","Zip":"37716-6634","Longitude":"-84.083516","Latitude":"36.170274","CR12":"876"},{"PR12":"806","MANUF":"HOND","Market":"TN Market 13","PMA":"Mkt 13 - PMA 3","DSC":"Autonation Honda West Knoxville","Address":"10117 Parkside Dr","City":"Knoxville","State":"TN","Zip":"37922-1945","Longitude":"-84.12206","Latitude":"35.90877","CR12":"635"},{"PR12":"636","MANUF":"HYUN","Market":"TN Market 13","PMA":"Mkt 13 - PMA 3","DSC":"Grayson Hyundai","Address":"8729 Kingston Pike","City":"Knoxville","State":"TN","Zip":"37923-5126","Longitude":"-84.0739","Latitude":"35.91854","CR12":"571"},{"PR12":"290","MANUF":"KIA","Market":"TN Market 13","PMA":"Mkt 13 - PMA 3","DSC":"Parkside Kia","Address":"9929 Parkside Dr","City":"Knoxville","State":"TN","Zip":"37922-2208","Longitude":"-84.113965","Latitude":"35.910458","CR12":"454"},{"PR12":"896","MANUF":"NISS","Market":"TN Market 13","PMA":"Mkt 13 - PMA 3","DSC":"Ted Russell Nissan","Address":"8565 Kingston Pike","City":"Knoxville","State":"TN","Zip":"37919-5354","Longitude":"-84.06781","Latitude":"35.9208","CR12":"376"},{"PR12":"444","MANUF":"SUBA","Market":"TN Market 13","PMA":"Mkt 13 - PMA 3","DSC":"Grayson Subaru","Address":"8729 Kingston Pike","City":"Knoxville","State":"TN","Zip":"37923-5126","Longitude":"-84.0739","Latitude":"35.91854","CR12":"828"},{"PR12":"681","MANUF":"TOY","Market":"TN Market 13","PMA":"Mkt 13 - PMA 3","DSC":"Toyota Knoxville","Address":"10415 Parkside Dr","City":"Knoxville","State":"TN","Zip":"37922-1948","Longitude":"-84.13107","Latitude":"35.90818","CR12":"366"},{"PR12":"657","MANUF":"NISS","Market":"TN Market 13","PMA":"Mkt 13 - PMA 4","DSC":"Oak Ridge Nissan","Address":"101 S Illinois Ave","City":"Oak Ridge","State":"TN","Zip":"37830-6202","Longitude":"-84.26836","Latitude":"36.0103","CR12":"1050"},{"PR12":"743","MANUF":"SUBA","Market":"TN Market 13","PMA":"Mkt 13 - PMA 4","DSC":"Earl Duff Subaru","Address":"1028 S Roane St","City":"Harriman","State":"TN","Zip":"37748-7418","Longitude":"-84.568621","Latitude":"35.91852","CR12":"927"},{"PR12":"479","MANUF":"KIA","Market":"TN Market 14","PMA":"Mkt 14 - PMA 1","DSC":"Russell Barnett Kia","Address":"915 S Anderson St","City":"Tullahoma","State":"TN","Zip":"37388-4007","Longitude":"-86.19684","Latitude":"35.3569","CR12":"342"},{"PR12":"695","MANUF":"NISS","Market":"TN Market 14","PMA":"Mkt 14 - PMA 1","DSC":"John Roberts Nissan","Address":"2747 Hillsboro Hwy","City":"Manchester","State":"TN","Zip":"37355-6540","Longitude":"-86.041413","Latitude":"35.453698","CR12":"1055"},{"PR12":"920","MANUF":"TOY","Market":"TN Market 14","PMA":"Mkt 14 - PMA 1","DSC":"John Roberts Toyota","Address":"2610 Hillsboro Hwy","City":"Manchester","State":"TN","Zip":"37355-6537","Longitude":"-86.044519","Latitude":"35.454478","CR12":"285"},{"PR12":"924","MANUF":"NISS","Market":"TN Market 15","PMA":"Mkt 15 - PMA 1","DSC":"Weakley County Mtrs, Inc","Address":"841 N Lindell St","City":"Martin","State":"TN","Zip":"38237-9207","Longitude":"-88.850657","Latitude":"36.369128","CR12":"894"},{"PR12":"1083","MANUF":"HOND","Market":"TN Market 16","PMA":"Mkt 16 - PMA 1","DSC":"Autonation Honda Covington Pike","Address":"1990 Covington Pike","City":"Memphis","State":"TN","Zip":"38128-6981","Longitude":"-89.895833","Latitude":"35.179217","CR12":"818"},{"PR12":"916","MANUF":"HYUN","Market":"TN Market 16","PMA":"Mkt 16 - PMA 1","DSC":"Gossett Hyundai","Address":"1880 Covington Pike","City":"Memphis","State":"TN","Zip":"38128-6904","Longitude":"-89.8959","Latitude":"35.176501","CR12":"458"},{"PR12":"477","MANUF":"KIA","Market":"TN Market 16","PMA":"Mkt 16 - PMA 1","DSC":"Gossett Kia","Address":"1900 Covington Pike","City":"Memphis","State":"TN","Zip":"38128-6981","Longitude":"-89.896561","Latitude":"35.177234","CR12":"646"},{"PR12":"492","MANUF":"NISS","Market":"TN Market 16","PMA":"Mkt 16 - PMA 1","DSC":"Jim Keras Nissan Inc","Address":"2080 Covington Pike","City":"Memphis","State":"TN","Zip":"38128-6982","Longitude":"-89.895817","Latitude":"35.181202","CR12":"883"},{"PR12":"386","MANUF":"SUBA","Market":"TN Market 16","PMA":"Mkt 16 - PMA 1","DSC":"Jim Keras Subaru","Address":"2110 Covington Pike","City":"Memphis","State":"TN","Zip":"38128-6907","Longitude":"-89.896318","Latitude":"35.18293","CR12":"389"},{"PR12":"942","MANUF":"HOND","Market":"TN Market 16","PMA":"Mkt 16 - PMA 2","DSC":"Autonation Honda 385","Address":"4030 Hacks Cross Rd","City":"Memphis","State":"TN","Zip":"38125-2805","Longitude":"-89.795055","Latitude":"35.038276","CR12":"396"},{"PR12":"249","MANUF":"HYUN","Market":"TN Market 16","PMA":"Mkt 16 - PMA 2","DSC":"Gossett Hyundai South","Address":"2660 Mount Moriah Rd","City":"Memphis","State":"TN","Zip":"38115-1533","Longitude":"-89.879367","Latitude":"35.0754","CR12":"416"},{"PR12":"260","MANUF":"KIA","Market":"TN Market 16","PMA":"Mkt 16 - PMA 2","DSC":"Gossett Kia South","Address":"2680 Mt Moriah","City":"Memphis","State":"TN","Zip":"38115","Longitude":"-89.88007","Latitude":"35.07578","CR12":"956"},{"PR12":"232","MANUF":"NISS","Market":"TN Market 16","PMA":"Mkt 16 - PMA 2","DSC":"Autonation Nissan Memphis","Address":"4140 Hacks Cross Rd","City":"Memphis","State":"TN","Zip":"38125-2805","Longitude":"-89.795819","Latitude":"35.035176","CR12":"677"},{"PR12":"907","MANUF":"TOY","Market":"TN Market 16","PMA":"Mkt 16 - PMA 2","DSC":"Principle Toyota","Address":"7370 Winchester Rd","City":"Memphis","State":"TN","Zip":"38125-2201","Longitude":"-89.817133","Latitude":"35.05105","CR12":"838"},{"PR12":"466","MANUF":"TOY","Market":"TN Market 16","PMA":"Mkt 16 - PMA 3","DSC":"Chuck Hutton Toyota","Address":"4601 Hutton Way","City":"Memphis","State":"TN","Zip":"38116-6236","Longitude":"-90.004193","Latitude":"35.023586","CR12":"493"},{"PR12":"940","MANUF":"HOND","Market":"TN Market 16","PMA":"Mkt 16 - PMA 4","DSC":"Wolfchase Honda","Address":"2982 N Germantown Rd","City":"Bartlett","State":"TN","Zip":"38133-4002","Longitude":"-89.7912","Latitude":"35.206915","CR12":"843"},{"PR12":"781","MANUF":"HYUN","Market":"TN Market 16","PMA":"Mkt 16 - PMA 4","DSC":"Wolfchase Hyundai","Address":"7727 US Highway 64","City":"Memphis","State":"TN","Zip":"38133-4005","Longitude":"-89.805604","Latitude":"35.20451","CR12":"416"},{"PR12":"426","MANUF":"NISS","Market":"TN Market 16","PMA":"Mkt 16 - PMA 4","DSC":"Wolfchase Nissan","Address":"2956 N Germantown Rd","City":"Bartlett","State":"TN","Zip":"38133-4002","Longitude":"-89.791383","Latitude":"35.205766","CR12":"652"},{"PR12":"926","MANUF":"TOY","Market":"TN Market 16","PMA":"Mkt 16 - PMA 4","DSC":"Wolfchase Toyota","Address":"2201 N Germantown Pkwy","City":"Cordova","State":"TN","Zip":"38016-4492","Longitude":"-89.793833","Latitude":"35.186099","CR12":"804"},{"PR12":"542","MANUF":"HOND","Market":"TN Market 17","PMA":"Mkt 17 - PMA 1","DSC":"Honda Morristown","Address":"4190 W Andrew Johnson Hwy","City":"Morristown","State":"TN","Zip":"37814-1105","Longitude":"-83.356801","Latitude":"36.193945","CR12":"820"},{"PR12":"938","MANUF":"HYUN","Market":"TN Market 17","PMA":"Mkt 17 - PMA 1","DSC":"Morristown Hyundai","Address":"5524 W Andrew Johnson Hwy","City":"Morristown","State":"TN","Zip":"37814-1030","Longitude":"-83.383562","Latitude":"36.181187","CR12":"962"},{"PR12":"642","MANUF":"KIA","Market":"TN Market 17","PMA":"Mkt 17 - PMA 1","DSC":"Rusty Wallace Kia of Morristown","Address":"300 King Ave","City":"Morristown","State":"TN","Zip":"37814-4838","Longitude":"-83.281024","Latitude":"36.22153","CR12":"419"},{"PR12":"842","MANUF":"NISS","Market":"TN Market 17","PMA":"Mkt 17 - PMA 1","DSC":"East Tennessee Nissan Inc","Address":"5496 W Andrew Johnson Hwy","City":"Morristown","State":"TN","Zip":"37814-1029","Longitude":"-83.382188","Latitude":"36.182184","CR12":"463"},{"PR12":"435","MANUF":"TOY","Market":"TN Market 17","PMA":"Mkt 17 - PMA 1","DSC":"Rusty Wallace Toyota","Address":"5944 W Andrew Johnson Hwy","City":"Morristown","State":"TN","Zip":"37814-1034","Longitude":"-83.390808","Latitude":"36.179253","CR12":"714"},{"PR12":"774","MANUF":"HOND","Market":"TN Market 18","PMA":"Mkt 18 - PMA 1","DSC":"Crest Honda","Address":"2215 Rosa L Parks Blvd","City":"Nashville","State":"TN","Zip":"37228-1315","Longitude":"-86.80271","Latitude":"36.19264","CR12":"228"},{"PR12":"442","MANUF":"HYUN","Market":"TN Market 18","PMA":"Mkt 18 - PMA 1","DSC":"Downtown Hyundai","Address":"1512 Broadway","City":"Nashville","State":"TN","Zip":"37203-3122","Longitude":"-86.79161","Latitude":"36.15509","CR12":"958"},{"PR12":"539","MANUF":"NISS","Market":"TN Market 18","PMA":"Mkt 18 - PMA 1","DSC":"Downtown Nashville Nissan","Address":"25 Vantage Way","City":"Nashville","State":"TN","Zip":"37228-1503","Longitude":"-86.793482","Latitude":"36.191759","CR12":"234"},{"PR12":"505","MANUF":"SUBA","Market":"TN Market 18","PMA":"Mkt 18 - PMA 1","DSC":"Nashville Subaru","Address":"1512 Broadway","City":"Nashville","State":"TN","Zip":"37203-3122","Longitude":"-86.79161","Latitude":"36.15509","CR12":"290"},{"PR12":"919","MANUF":"TOY","Market":"TN Market 18","PMA":"Mkt 18 - PMA 1","DSC":"Beaman Toyota","Address":"1525 Broadway","City":"Nashville","State":"TN","Zip":"37203-3121","Longitude":"-86.79242","Latitude":"36.15426","CR12":"1025"},{"PR12":"1064","MANUF":"HOND","Market":"TN Market 18","PMA":"Mkt 18 - PMA 2","DSC":"Darrell Waltrip Honda","Address":"1430 Murfreesboro Rd","City":"Franklin","State":"TN","Zip":"37067-5024","Longitude":"-86.81906","Latitude":"35.91183","CR12":"844"},{"PR12":"554","MANUF":"HYUN","Market":"TN Market 18","PMA":"Mkt 18 - PMA 2","DSC":"Hyundai of Cool Springs","Address":"201 Comtide Blvd","City":"Franklin","State":"TN","Zip":"37067-6316","Longitude":"-86.80811","Latitude":"35.95815","CR12":"675"},{"PR12":"965","MANUF":"KIA","Market":"TN Market 18","PMA":"Mkt 18 - PMA 2","DSC":"Franklin Kia","Address":"1413 Murfreesboro Rd","City":"Franklin","State":"TN","Zip":"37067-5026","Longitude":"-86.82179","Latitude":"35.91419","CR12":"404"},{"PR12":"523","MANUF":"NISS","Market":"TN Market 18","PMA":"Mkt 18 - PMA 2","DSC":"Nissan of Cool Springs","Address":"212 Comtide Blvd","City":"Franklin","State":"TN","Zip":"37067-6315","Longitude":"-86.80911","Latitude":"35.95712","CR12":"405"},{"PR12":"819","MANUF":"SUBA","Market":"TN Market 18","PMA":"Mkt 18 - PMA 2","DSC":"Darrell Waltrip Subaru","Address":"1450 Murfreesboro Rd","City":"Franklin","State":"TN","Zip":"37067-5024","Longitude":"-86.81754","Latitude":"35.91136","CR12":"343"},{"PR12":"209","MANUF":"TOY","Market":"TN Market 18","PMA":"Mkt 18 - PMA 2","DSC":"Toyota of Cool Springs","Address":"1875 W McEwen Dr","City":"Franklin","State":"TN","Zip":"37067-1783","Longitude":"-86.82097","Latitude":"35.93566","CR12":"256"},{"PR12":"389","MANUF":"HYUN","Market":"TN Market 18","PMA":"Mkt 18 - PMA 3","DSC":"Wilson County Hyundai, Inc.","Address":"1310 W Main St","City":"Lebanon","State":"TN","Zip":"37087-3210","Longitude":"-86.322401","Latitude":"36.213482","CR12":"667"},{"PR12":"204","MANUF":"NISS","Market":"TN Market 18","PMA":"Mkt 18 - PMA 3","DSC":"Newton Nissan of Gallatin","Address":"1461 Nashville Pike","City":"Gallatin","State":"TN","Zip":"37066-7167","Longitude":"-86.495593","Latitude":"36.3611","CR12":"823"},{"PR12":"938","MANUF":"TOY","Market":"TN Market 18","PMA":"Mkt 18 - PMA 3","DSC":"Ron Hibbard Toyota","Address":"1435 Nashville Pike","City":"Gallatin","State":"TN","Zip":"37066-7167","Longitude":"-86.494348","Latitude":"36.362233","CR12":"637"},{"PR12":"1021","MANUF":"HOND","Market":"TN Market 18","PMA":"Mkt 18 - PMA 4","DSC":"Music City Honda","Address":"1821 Gallatin Pike N","City":"Madison","State":"TN","Zip":"37115-2016","Longitude":"-86.697515","Latitude":"36.298183","CR12":"673"},{"PR12":"1066","MANUF":"HYUN","Market":"TN Market 18","PMA":"Mkt 18 - PMA 4","DSC":"Hallmark Hyundai","Address":"1198 W Main St","City":"Hendersonville","State":"TN","Zip":"37075-2823","Longitude":"-86.665501","Latitude":"36.309319","CR12":"764"},{"PR12":"486","MANUF":"KIA","Market":"TN Market 18","PMA":"Mkt 18 - PMA 4","DSC":"Universal Kia","Address":"1536 Gallatin Pike N","City":"Madison","State":"TN","Zip":"37115-2117","Longitude":"-86.705022","Latitude":"36.289267","CR12":"379"},{"PR12":"519","MANUF":"NISS","Market":"TN Market 18","PMA":"Mkt 18 - PMA 4","DSC":"Nissan of Rivergate","Address":"1550 Gallatin Pike N","City":"Madison","State":"TN","Zip":"37115-2117","Longitude":"-86.704605","Latitude":"36.290567","CR12":"887"},{"PR12":"388","MANUF":"TOY","Market":"TN Market 18","PMA":"Mkt 18 - PMA 4","DSC":"Nashville Toyota North","Address":"2400 Gallatin Pike N","City":"Madison","State":"TN","Zip":"37115-2010","Longitude":"-86.677387","Latitude":"36.309216","CR12":"748"},{"PR12":"611","MANUF":"HOND","Market":"TN Market 18","PMA":"Mkt 18 - PMA 5","DSC":"Honda of Murfeesboro","Address":"1625 S Church St","City":"Murfreesboro","State":"TN","Zip":"37130-5512","Longitude":"-86.39424","Latitude":"35.82379","CR12":"202"},{"PR12":"1098","MANUF":"HYUN","Market":"TN Market 18","PMA":"Mkt 18 - PMA 5","DSC":"Murfreesboro Hyundai","Address":"2203 NW Broad St","City":"Murfreesboro","State":"TN","Zip":"37129-2909","Longitude":"-86.43134","Latitude":"35.88229","CR12":"474"},{"PR12":"719","MANUF":"KIA","Market":"TN Market 18","PMA":"Mkt 18 - PMA 5","DSC":"Kia of Murfreesboro","Address":"2505 S Church St","City":"Murfreesboro","State":"TN","Zip":"37127-6361","Longitude":"-86.39702","Latitude":"35.80537","CR12":"851"},{"PR12":"734","MANUF":"NISS","Market":"TN Market 18","PMA":"Mkt 18 - PMA 5","DSC":"Nissan of Murfreesboro","Address":"814 Memorial Blvd","City":"Murfreesboro","State":"TN","Zip":"37129-2732","Longitude":"-86.39501","Latitude":"35.85422","CR12":"516"},{"PR12":"418","MANUF":"TOY","Market":"TN Market 18","PMA":"Mkt 18 - PMA 5","DSC":"Toyota of Murfreesboro","Address":"3434 Bill Smith Dr","City":"Murfreesboro","State":"TN","Zip":"37129-4180","Longitude":"-86.459988","Latitude":"35.868155","CR12":"669"},{"PR12":"525","MANUF":"KIA","Market":"TN Market 18","PMA":"Mkt 18 - PMA 6","DSC":"Universal Kia","Address":"5406 Target Dr","City":"Antioch","State":"TN","Zip":"37013-3870","Longitude":"-86.66014","Latitude":"36.04404","CR12":"375"},{"PR12":"356","MANUF":"NISS","Market":"TN Market 18","PMA":"Mkt 18 - PMA 6","DSC":"Action Nissan","Address":"307 Thompson Ln","City":"Nashville","State":"TN","Zip":"37211-2428","Longitude":"-86.74342","Latitude":"36.11052","CR12":"379"},{"PR12":"564","MANUF":"NISS","Market":"TN Market 19","PMA":"Mkt 19 - PMA 1","DSC":"Nissan of Paris, LLC","Address":"1490 Mineral Wells Ave","City":"Paris","State":"TN","Zip":"38242-5055","Longitude":"-88.304699","Latitude":"36.279709","CR12":"607"},{"PR12":"790","MANUF":"TOY","Market":"TN Market 19","PMA":"Mkt 19 - PMA 1","DSC":"Peppers Toyota","Address":"2400 E Wood St","City":"Paris","State":"TN","Zip":"38242-9591","Longitude":"-88.280207","Latitude":"36.318865","CR12":"555"},{"PR12":"1058","MANUF":"NISS","Market":"TN Market 20","PMA":"Mkt 20 - PMA 1","DSC":"Jones Motor Co., Inc.","Address":"1260 Wayne Rd","City":"Savannah","State":"TN","Zip":"38372-1926","Longitude":"-88.224595","Latitude":"35.226479","CR12":"813"},{"PR12":"252","MANUF":"NISS","Market":"TN Market 21","PMA":"Mkt 21 - PMA 1","DSC":"Newton Nissan South, Inc.","Address":"2801 Highway 231 N","City":"Shelbyville","State":"TN","Zip":"37160-2977","Longitude":"-86.447494","Latitude":"35.558437","CR12":"586"}]